STARLINK-1861_new
1 17148C 20088AC  21326.09969073  .00002275  00000-0  15240-3 0  3264
2 17148  53.0544 133.2933 0001795  84.0024 306.7112 15.06404147    14
STARLINK-1861_old
1 27148C 20088AC  21325.10438405  .00002122  00000-0  14213-3 0  3254
2 27148  53.0541 137.7613 0001835  82.1825 307.9471 15.06399521    18
